[{"OBJECT_NAME":"ARSAT 1","OBJECT_ID":"2014-062B","EPOCH":"2026-04-25T20:49:38.771040","MEAN_MOTION":1.00272409,"ECCENTRICITY":0.0001817,"INCLINATION":0.0072,"RA_OF_ASC_NODE":41.5876,"ARG_OF_PERICENTER":340.627,"MEAN_ANOMALY":72.2634,"EPHEMERIS_TYPE":0,"CLASSIFICATION_TYPE":"U","NORAD_CAT_ID":40272,"ELEMENT_SET_NO":999,"REV_AT_EPOCH":4210,"BSTAR":0,"MEAN_MOTION_DOT":-2.73e-6,"MEAN_MOTION_DDOT":0},{"OBJECT_NAME":"EUTELSAT 53A","OBJECT_ID":"2014-064A","EPOCH":"2026-04-24T13:54:20.216160","MEAN_MOTION":1.00273658,"ECCENTRICITY":6.489e-5,"INCLINATION":0.0194,"RA_OF_ASC_NODE":243.9444,"ARG_OF_PERICENTER":32.8469,"MEAN_ANOMALY":197.4058,"EPHEMERIS_TYPE":0,"CLASSIFICATION_TYPE":"U","NORAD_CAT_ID":40277,"ELEMENT_SET_NO":999,"REV_AT_EPOCH":4103,"BSTAR":0,"MEAN_MOTION_DOT":8.3e-7,"MEAN_MOTION_DDOT":0},{"OBJECT_NAME":"BREEZE-M R/B","OBJECT_ID":"2014-064B","EPOCH":"2026-04-24T15:27:01.886112","MEAN_MOTION":0.95222932,"ECCENTRICITY":0.0585527,"INCLINATION":9.1681,"RA_OF_ASC_NODE":63.178,"ARG_OF_PERICENTER":216.5138,"MEAN_ANOMALY":139.3202,"EPHEMERIS_TYPE":0,"CLASSIFICATION_TYPE":"U","NORAD_CAT_ID":40278,"ELEMENT_SET_NO":999,"REV_AT_EPOCH":4001,"BSTAR":0,"MEAN_MOTION_DOT":-2.05e-6,"MEAN_MOTION_DDOT":0},{"OBJECT_NAME":"MERIDIAN 7","OBJECT_ID":"2014-069A","EPOCH":"2026-04-24T20:13:19.670592","MEAN_MOTION":2.00585549,"ECCENTRICITY":0.6667622,"INCLINATION":63.4466,"RA_OF_ASC_NODE":220.6063,"ARG_OF_PERICENTER":270.9068,"MEAN_ANOMALY":19.3633,"EPHEMERIS_TYPE":0,"CLASSIFICATION_TYPE":"U","NORAD_CAT_ID":40296,"ELEMENT_SET_NO":999,"REV_AT_EPOCH":8416,"BSTAR":0,"MEAN_MOTION_DOT":1.47e-6,"MEAN_MOTION_DDOT":0},{"OBJECT_NAME":"GSAT-16","OBJECT_ID":"2014-078A","EPOCH":"2026-04-25T01:53:36.407904","MEAN_MOTION":1.00271168,"ECCENTRICITY":0.00067649,"INCLINATION":0.1122,"RA_OF_ASC_NODE":84.2073,"ARG_OF_PERICENTER":348.5013,"MEAN_ANOMALY":223.866,"EPHEMERIS_TYPE":0,"CLASSIFICATION_TYPE":"U","NORAD_CAT_ID":40332,"ELEMENT_SET_NO":999,"REV_AT_EPOCH":4157,"BSTAR":0,"MEAN_MOTION_DOT":7.1e-7,"MEAN_MOTION_DDOT":0},{"OBJECT_NAME":"DIRECTV 14","OBJECT_ID":"2014-078B","EPOCH":"2026-04-25T09:42:59.685408","MEAN_MOTION":1.00270418,"ECCENTRICITY":5.96e-5,"INCLINATION":0.0104,"RA_OF_ASC_NODE":54.8027,"ARG_OF_PERICENTER":102.7497,"MEAN_ANOMALY":102.3726,"EPHEMERIS_TYPE":0,"CLASSIFICATION_TYPE":"U","NORAD_CAT_ID":40333,"ELEMENT_SET_NO":999,"REV_AT_EPOCH":4151,"BSTAR":0,"MEAN_MOTION_DOT":-1.39e-6,"MEAN_MOTION_DDOT":0},{"OBJECT_NAME":"YAMAL 401","OBJECT_ID":"2014-082A","EPOCH":"2026-04-25T15:19:38.623872","MEAN_MOTION":1.00273371,"ECCENTRICITY":6.44e-5,"INCLINATION":0.0122,"RA_OF_ASC_NODE":165.5853,"ARG_OF_PERICENTER":235.6912,"MEAN_ANOMALY":132.236,"EPHEMERIS_TYPE":0,"CLASSIFICATION_TYPE":"U","NORAD_CAT_ID":40345,"ELEMENT_SET_NO":999,"REV_AT_EPOCH":4139,"BSTAR":0,"MEAN_MOTION_DOT":-2.43e-6,"MEAN_MOTION_DDOT":0},{"OBJECT_NAME":"ASTRA 2G","OBJECT_ID":"2014-089A","EPOCH":"2026-04-25T18:52:40.999296","MEAN_MOTION":1.00270672,"ECCENTRICITY":0.0004731,"INCLINATION":0.0561,"RA_OF_ASC_NODE":27.8534,"ARG_OF_PERICENTER":15.345,"MEAN_ANOMALY":121.9537,"EPHEMERIS_TYPE":0,"CLASSIFICATION_TYPE":"U","NORAD_CAT_ID":40364,"ELEMENT_SET_NO":999,"REV_AT_EPOCH":4144,"BSTAR":0,"MEAN_MOTION_DOT":1.36e-6,"MEAN_MOTION_DDOT":0},{"OBJECT_NAME":"FENGYUN 2G","OBJECT_ID":"2014-090A","EPOCH":"2026-04-25T20:55:44.198976","MEAN_MOTION":1.00272778,"ECCENTRICITY":0.0002969,"INCLINATION":5.5091,"RA_OF_ASC_NODE":73.4313,"ARG_OF_PERICENTER":146.1555,"MEAN_ANOMALY":48.0199,"EPHEMERIS_TYPE":0,"CLASSIFICATION_TYPE":"U","NORAD_CAT_ID":40367,"ELEMENT_SET_NO":999,"REV_AT_EPOCH":4147,"BSTAR":0,"MEAN_MOTION_DOT":-3.13e-6,"MEAN_MOTION_DDOT":0},{"OBJECT_NAME":"CZ-3A R/B","OBJECT_ID":"2014-090B","EPOCH":"2026-04-24T17:10:46.505856","MEAN_MOTION":2.26189898,"ECCENTRICITY":0.72675529,"INCLINATION":24.8892,"RA_OF_ASC_NODE":58.8742,"ARG_OF_PERICENTER":208.1703,"MEAN_ANOMALY":77.9759,"EPHEMERIS_TYPE":0,"CLASSIFICATION_TYPE":"U","NORAD_CAT_ID":40368,"ELEMENT_SET_NO":999,"REV_AT_EPOCH":9112,"BSTAR":0.00086078306,"MEAN_MOTION_DOT":8.42e-6,"MEAN_MOTION_DDOT":0},{"OBJECT_NAME":"FENGYUN 2G AKM","OBJECT_ID":"2014-090C","EPOCH":"2026-04-25T15:06:53.320320","MEAN_MOTION":0.99592155,"ECCENTRICITY":0.0046732,"INCLINATION":7.4268,"RA_OF_ASC_NODE":69.2373,"ARG_OF_PERICENTER":172.6501,"MEAN_ANOMALY":187.3895,"EPHEMERIS_TYPE":0,"CLASSIFICATION_TYPE":"U","NORAD_CAT_ID":40369,"ELEMENT_SET_NO":999,"REV_AT_EPOCH":4111,"BSTAR":0,"MEAN_MOTION_DOT":-1.97e-6,"MEAN_MOTION_DDOT":0},{"OBJECT_NAME":"MUOS-3","OBJECT_ID":"2015-002A","EPOCH":"2026-04-25T16:57:19.865088","MEAN_MOTION":1.00270358,"ECCENTRICITY":0.0051058,"INCLINATION":4.4209,"RA_OF_ASC_NODE":43.2635,"ARG_OF_PERICENTER":181.503,"MEAN_ANOMALY":227.7691,"EPHEMERIS_TYPE":0,"CLASSIFICATION_TYPE":"U","NORAD_CAT_ID":40374,"ELEMENT_SET_NO":999,"REV_AT_EPOCH":4106,"BSTAR":0,"MEAN_MOTION_DOT":-1.4e-6,"MEAN_MOTION_DDOT":0},{"OBJECT_NAME":"INMARSAT 5-F2","OBJECT_ID":"2015-005A","EPOCH":"2026-04-25T20:57:26.715168","MEAN_MOTION":1.00267951,"ECCENTRICITY":9.12e-5,"INCLINATION":0.0107,"RA_OF_ASC_NODE":224.3484,"ARG_OF_PERICENTER":124.4222,"MEAN_ANOMALY":124.47,"EPHEMERIS_TYPE":0,"CLASSIFICATION_TYPE":"U","NORAD_CAT_ID":40384,"ELEMENT_SET_NO":999,"REV_AT_EPOCH":4047,"BSTAR":0,"MEAN_MOTION_DOT":0,"MEAN_MOTION_DDOT":0},{"OBJECT_NAME":"BREEZE-M R/B","OBJECT_ID":"2015-005B","EPOCH":"2026-04-25T06:35:33.604800","MEAN_MOTION":1.11107544,"ECCENTRICITY":0.7561071,"INCLINATION":27.2412,"RA_OF_ASC_NODE":278.4329,"ARG_OF_PERICENTER":123.3372,"MEAN_ANOMALY":331.1434,"EPHEMERIS_TYPE":0,"CLASSIFICATION_TYPE":"U","NORAD_CAT_ID":40385,"ELEMENT_SET_NO":999,"REV_AT_EPOCH":4556,"BSTAR":0,"MEAN_MOTION_DOT":-5.08e-6,"MEAN_MOTION_DDOT":0},{"OBJECT_NAME":"ABS-3A","OBJECT_ID":"2015-010A","EPOCH":"2026-04-25T06:45:00.207360","MEAN_MOTION":1.00269114,"ECCENTRICITY":0.0001477,"INCLINATION":0.0133,"RA_OF_ASC_NODE":251.7921,"ARG_OF_PERICENTER":89.6895,"MEAN_ANOMALY":330.1005,"EPHEMERIS_TYPE":0,"CLASSIFICATION_TYPE":"U","NORAD_CAT_ID":40424,"ELEMENT_SET_NO":999,"REV_AT_EPOCH":4084,"BSTAR":0,"MEAN_MOTION_DOT":-4.1e-7,"MEAN_MOTION_DDOT":0},{"OBJECT_NAME":"EUTELSAT 115 WEST B","OBJECT_ID":"2015-010B","EPOCH":"2026-04-25T15:08:38.589216","MEAN_MOTION":1.00270578,"ECCENTRICITY":1.05e-5,"INCLINATION":0.0107,"RA_OF_ASC_NODE":103.2201,"ARG_OF_PERICENTER":18.4457,"MEAN_ANOMALY":204.2549,"EPHEMERIS_TYPE":0,"CLASSIFICATION_TYPE":"U","NORAD_CAT_ID":40425,"ELEMENT_SET_NO":999,"REV_AT_EPOCH":4086,"BSTAR":0,"MEAN_MOTION_DOT":-3.9e-7,"MEAN_MOTION_DDOT":0},{"OBJECT_NAME":"MMS 1","OBJECT_ID":"2015-011A","EPOCH":"2026-04-25T22:00:01.998720","MEAN_MOTION":0.28188796,"ECCENTRICITY":0.8368033,"INCLINATION":71.4225,"RA_OF_ASC_NODE":349.485,"ARG_OF_PERICENTER":166.3956,"MEAN_ANOMALY":6.2732,"EPHEMERIS_TYPE":0,"CLASSIFICATION_TYPE":"U","NORAD_CAT_ID":40482,"ELEMENT_SET_NO":999,"REV_AT_EPOCH":135,"BSTAR":0,"MEAN_MOTION_DOT":-7.13e-6,"MEAN_MOTION_DDOT":0},{"OBJECT_NAME":"MMS 2","OBJECT_ID":"2015-011B","EPOCH":"2026-04-25T22:00:01.998720","MEAN_MOTION":0.28183039,"ECCENTRICITY":0.8369091,"INCLINATION":71.4227,"RA_OF_ASC_NODE":349.4871,"ARG_OF_PERICENTER":166.4017,"MEAN_ANOMALY":6.2574,"EPHEMERIS_TYPE":0,"CLASSIFICATION_TYPE":"U","NORAD_CAT_ID":40483,"ELEMENT_SET_NO":999,"REV_AT_EPOCH":135,"BSTAR":0,"MEAN_MOTION_DOT":-7.13e-6,"MEAN_MOTION_DDOT":0},{"OBJECT_NAME":"MMS 3","OBJECT_ID":"2015-011C","EPOCH":"2026-04-25T22:00:01.998720","MEAN_MOTION":0.28183068,"ECCENTRICITY":0.8368322,"INCLINATION":71.4255,"RA_OF_ASC_NODE":349.4917,"ARG_OF_PERICENTER":166.396,"MEAN_ANOMALY":6.2595,"EPHEMERIS_TYPE":0,"CLASSIFICATION_TYPE":"U","NORAD_CAT_ID":40484,"ELEMENT_SET_NO":999,"REV_AT_EPOCH":135,"BSTAR":0,"MEAN_MOTION_DOT":-7.13e-6,"MEAN_MOTION_DDOT":0},{"OBJECT_NAME":"MMS 4","OBJECT_ID":"2015-011D","EPOCH":"2026-04-25T22:00:01.998720","MEAN_MOTION":0.28182568,"ECCENTRICITY":0.8367895,"INCLINATION":71.4225,"RA_OF_ASC_NODE":349.4871,"ARG_OF_PERICENTER":166.4038,"MEAN_ANOMALY":6.2469,"EPHEMERIS_TYPE":0,"CLASSIFICATION_TYPE":"U","NORAD_CAT_ID":40485,"ELEMENT_SET_NO":999,"REV_AT_EPOCH":135,"BSTAR":0,"MEAN_MOTION_DOT":-7.13e-6,"MEAN_MOTION_DDOT":0},{"OBJECT_NAME":"EXPRESS-AM7","OBJECT_ID":"2015-012A","EPOCH":"2026-04-25T18:56:03.176160","MEAN_MOTION":1.00273345,"ECCENTRICITY":0.0002934,"INCLINATION":0.028,"RA_OF_ASC_NODE":97.003,"ARG_OF_PERICENTER":289.5129,"MEAN_ANOMALY":151.2916,"EPHEMERIS_TYPE":0,"CLASSIFICATION_TYPE":"U","NORAD_CAT_ID":40505,"ELEMENT_SET_NO":999,"REV_AT_EPOCH":4048,"BSTAR":0,"MEAN_MOTION_DOT":1.37e-6,"MEAN_MOTION_DDOT":0},{"OBJECT_NAME":"BEIDOU-3S IGSO-1S","OBJECT_ID":"2015-019A","EPOCH":"2026-04-22T23:45:28.549728","MEAN_MOTION":1.002611,"ECCENTRICITY":0.0037208,"INCLINATION":49.2998,"RA_OF_ASC_NODE":296.1212,"ARG_OF_PERICENTER":189.9963,"MEAN_ANOMALY":176.4804,"EPHEMERIS_TYPE":0,"CLASSIFICATION_TYPE":"U","NORAD_CAT_ID":40549,"ELEMENT_SET_NO":999,"REV_AT_EPOCH":4052,"BSTAR":0,"MEAN_MOTION_DOT":-1.71e-6,"MEAN_MOTION_DDOT":0},{"OBJECT_NAME":"THOR 7","OBJECT_ID":"2015-022A","EPOCH":"2026-04-25T17:01:49.433088","MEAN_MOTION":1.00274001,"ECCENTRICITY":0.0002529,"INCLINATION":0.0352,"RA_OF_ASC_NODE":86.4194,"ARG_OF_PERICENTER":303.2319,"MEAN_ANOMALY":78.8954,"EPHEMERIS_TYPE":0,"CLASSIFICATION_TYPE":"U","NORAD_CAT_ID":40613,"ELEMENT_SET_NO":999,"REV_AT_EPOCH":4029,"BSTAR":0,"MEAN_MOTION_DOT":-2.2e-7,"MEAN_MOTION_DDOT":0},{"OBJECT_NAME":"TURKMENALEM52E/MONACOSAT","OBJECT_ID":"2015-023A","EPOCH":"2026-04-25T18:59:25.352160","MEAN_MOTION":1.00271732,"ECCENTRICITY":0.0003133,"INCLINATION":0.0213,"RA_OF_ASC_NODE":98.8867,"ARG_OF_PERICENTER":298.4988,"MEAN_ANOMALY":153.2854,"EPHEMERIS_TYPE":0,"CLASSIFICATION_TYPE":"U","NORAD_CAT_ID":40617,"ELEMENT_SET_NO":999,"REV_AT_EPOCH":4032,"BSTAR":0,"MEAN_MOTION_DOT":0,"MEAN_MOTION_DDOT":0}]
